start=new Date('2022-06-09T00:00:00.000Z').valueOf();
sats=[{"MEAN_ELEMENT_THEORY":"SGP4","APOAPSIS":"548.453","BSTAR":"-0.00004020600000","OBJECT_NAME":"STARLINK-2029","TLE_LINE1":"1 48320U 21036AW  22159.65467156 -.00000880  00000-0 -40206-4 0  9992","ELEMENT_SET_NO":"999","RCS_SIZE":"LARGE","RA_OF_ASC_NODE":"131.9521","SEMIMAJOR_AXIS":"6925.355","EPOCH":"2022-06-08T15:42:43.622784","MEAN_MOTION_DOT":"-0.00000880","MEAN_MOTION_DDOT":"0.0000000000000","COUNTRY_CODE":"US","PERIOD":"95.592","ARG_OF_PERICENTER":"55.9346","FILE":"3486017","CLASSIFICATION_TYPE":"U","REV_AT_EPOCH":"6217","REF_FRAME":"TEME","DECAY_DATE":null,"OBJECT_ID":"2021-036AW","EPHEMERIS_TYPE":"0","LAUNCH_DATE":"2021-04-29","OBJECT_TYPE":"PAYLOAD","INCLINATION":"53.0549","TLE_LINE2":"2 48320  53.0549 131.9521 0001780  55.9346 304.1812 15.06397814 62174","CENTER_NAME":"EARTH","SITE":"AFETR","GP_ID":"205640319","TIME_SYSTEM":"UTC","NORAD_CAT_ID":"48320","MEAN_ANOMALY":"304.1812","PERIAPSIS":"545.988","ECCENTRICITY":"0.00017800","MEAN_MOTION":"15.06397814"},{"TLE_LINE1":"1 48321U 21036AX  22159.65099140 -.00000443  00000-0 -10819-4 0  9999","MEAN_MOTION_DDOT":"0.0000000000000","ELEMENT_SET_NO":"999","RCS_SIZE":"LARGE","SEMIMAJOR_AXIS":"6925.352","EPOCH":"2022-06-08T15:37:25.656960","RA_OF_ASC_NODE":"131.9595","MEAN_MOTION_DOT":"-0.00000443","MEAN_ELEMENT_THEORY":"SGP4","APOAPSIS":"548.686","OBJECT_NAME":"STARLINK-2457","BSTAR":"-0.00001081900000","DECAY_DATE":null,"REF_FRAME":"TEME","REV_AT_EPOCH":"6212","OBJECT_ID":"2021-036AX","PERIOD":"95.592","ARG_OF_PERICENTER":"59.5434","FILE":"3486017","COUNTRY_CODE":"US","CLASSIFICATION_TYPE":"U","CENTER_NAME":"EARTH","TLE_LINE2":"2 48321  53.0553 131.9595 0002121  59.5434 300.5765 15.06398858 62120","GP_ID":"205640320","SITE":"AFETR","LAUNCH_DATE":"2021-04-29","EPHEMERIS_TYPE":"0","INCLINATION":"53.0553","OBJECT_TYPE":"PAYLOAD","PERIAPSIS":"545.748","MEAN_ANOMALY":"300.5765","MEAN_MOTION":"15.06398858","ECCENTRICITY":"0.00021210","TIME_SYSTEM":"UTC","NORAD_CAT_ID":"48321"},{"APOAPSIS":"548.584","MEAN_ELEMENT_THEORY":"SGP4","BSTAR":"0.00012610000000","OBJECT_NAME":"STARLINK-2477","TLE_LINE1":"1 48322U 21036AY  22159.64729132  .00001597  00000-0  12610-3 0  9999","EPOCH":"2022-06-08T15:32:05.970048","RCS_SIZE":"LARGE","SEMIMAJOR_AXIS":"6925.336","MEAN_MOTION_DOT":"0.00001597","RA_OF_ASC_NODE":"131.9733","ELEMENT_SET_NO":"999","MEAN_MOTION_DDOT":"0.0000000000000","COUNTRY_CODE":"US","FILE":"3486155","ARG_OF_PERICENTER":"59.0952","PERIOD":"95.592","CLASSIFICATION_TYPE":"U","REV_AT_EPOCH":"6212","DECAY_DATE":null,"REF_FRAME":"TEME","OBJECT_ID":"2021-036AY","EPHEMERIS_TYPE":"0","LAUNCH_DATE":"2021-04-29","OBJECT_TYPE":"PAYLOAD","INCLINATION":"53.0553","TLE_LINE2":"2 48322  53.0553 131.9733 0001997  59.0952 301.0233 15.06404151 62125","CENTER_NAME":"EARTH","SITE":"AFETR","GP_ID":"205643446","TIME_SYSTEM":"UTC","NORAD_CAT_ID":"48322","PERIAPSIS":"545.818","MEAN_ANOMALY":"301.0233","ECCENTRICITY":"0.00019970","MEAN_MOTION":"15.06404151"},{"APOAPSIS":"548.911","MEAN_ELEMENT_THEORY":"SGP4","BSTAR":"-0.00000611990000","OBJECT_NAME":"STARLINK-2515","TLE_LINE1":"1 48323U 21036AZ  22159.64361638 -.00000373  00000-0 -61199-5 0  9994","RCS_SIZE":"LARGE","EPOCH":"2022-06-08T15:26:48.455232","SEMIMAJOR_AXIS":"6925.368","MEAN_MOTION_DOT":"-0.00000373","RA_OF_ASC_NODE":"131.9938","ELEMENT_SET_NO":"999","MEAN_MOTION_DDOT":"0.0000000000000","COUNTRY_CODE":"US","FILE":"3486101","PERIOD":"95.593","ARG_OF_PERICENTER":"52.8083","CLASSIFICATION_TYPE":"U","REV_AT_EPOCH":"6212","REF_FRAME":"TEME","DECAY_DATE":null,"OBJECT_ID":"2021-036AZ","LAUNCH_DATE":"2021-04-29","EPHEMERIS_TYPE":"0","OBJECT_TYPE":"PAYLOAD","INCLINATION":"53.0537","TLE_LINE2":"2 48323  53.0537 131.9938 0002423  52.8083 307.3127 15.06393723 62129","CENTER_NAME":"EARTH","SITE":"AFETR","GP_ID":"205642187","TIME_SYSTEM":"UTC","NORAD_CAT_ID":"48323","PERIAPSIS":"545.555","MEAN_ANOMALY":"307.3127","ECCENTRICITY":"0.00024230","MEAN_MOTION":"15.06393723"},{"TLE_LINE1":"1 48324U 21036BA  22159.63897537  .00001554  00000-0  12321-3 0  9997","ELEMENT_SET_NO":"999","RCS_SIZE":"LARGE","SEMIMAJOR_AXIS":"6925.326","EPOCH":"2022-06-08T15:20:07.471968","RA_OF_ASC_NODE":"131.9994","MEAN_MOTION_DOT":"0.00001554","MEAN_MOTION_DDOT":"0.0000000000000","MEAN_ELEMENT_THEORY":"SGP4","APOAPSIS":"548.585","BSTAR":"0.00012321000000","OBJECT_NAME":"STARLINK-2527","REV_AT_EPOCH":"6212","DECAY_DATE":null,"REF_FRAME":"TEME","OBJECT_ID":"2021-036BA","COUNTRY_CODE":"US","ARG_OF_PERICENTER":"57.7240","PERIOD":"95.592","FILE":"3486123","CLASSIFICATION_TYPE":"U","TLE_LINE2":"2 48324  53.0532 131.9994 0002013  57.7240 302.3944 15.06407400 62121","CENTER_NAME":"EARTH","SITE":"AFETR","GP_ID":"205643002","EPHEMERIS_TYPE":"0","LAUNCH_DATE":"2021-04-29","OBJECT_TYPE":"PAYLOAD","INCLINATION":"53.0532","MEAN_ANOMALY":"302.3944","PERIAPSIS":"545.797","ECCENTRICITY":"0.00020130","MEAN_MOTION":"15.06407400","TIME_SYSTEM":"UTC","NORAD_CAT_ID":"48324"},{"MEAN_MOTION":"15.06396350","ECCENTRICITY":"0.00019980","MEAN_ANOMALY":"307.9717","PERIAPSIS":"545.841","NORAD_CAT_ID":"48325","TIME_SYSTEM":"UTC","GP_ID":"205633816","SITE":"AFETR","CENTER_NAME":"EARTH","TLE_LINE2":"2 48325  53.0538 132.9327 0001998  52.1453 307.9717 15.06396350 61506","INCLINATION":"53.0538","OBJECT_TYPE":"PAYLOAD","EPHEMERIS_TYPE":"0","LAUNCH_DATE":"2021-04-29","OBJECT_ID":"2021-036BB","DECAY_DATE":null,"REF_FRAME":"TEME","REV_AT_EPOCH":"6150","CLASSIFICATION_TYPE":"U","ARG_OF_PERICENTER":"52.1453","PERIOD":"95.592","FILE":"3485745","COUNTRY_CODE":"US","MEAN_MOTION_DDOT":"0.0000000000000","ELEMENT_SET_NO":"999","SEMIMAJOR_AXIS":"6925.360","RCS_SIZE":"LARGE","EPOCH":"2022-06-08T10:29:34.541376","RA_OF_ASC_NODE":"132.9327","MEAN_MOTION_DOT":"-0.00000272","TLE_LINE1":"1 48325U 21036BB  22159.43720534 -.00000272  00000-0  66076-6 0  9994","OBJECT_NAME":"STARLINK-2495","BSTAR":"0.00000066076000","MEAN_ELEMENT_THEORY":"SGP4","APOAPSIS":"548.608"},{"NORAD_CAT_ID":"48326","TIME_SYSTEM":"UTC","ECCENTRICITY":"0.00015600","MEAN_MOTION":"15.06404009","PERIAPSIS":"546.121","MEAN_ANOMALY":"289.8880","OBJECT_TYPE":"PAYLOAD","INCLINATION":"53.0554","EPHEMERIS_TYPE":"0","LAUNCH_DATE":"2021-04-29","SITE":"AFETR","GP_ID":"205635067","TLE_LINE2":"2 48326  53.0554 133.2385 0001560  70.2277 289.8880 15.06404009 61491","CENTER_NAME":"EARTH","CLASSIFICATION_TYPE":"U","COUNTRY_CODE":"US","ARG_OF_PERICENTER":"70.2277","PERIOD":"95.592","FILE":"3485745","OBJECT_ID":"2021-036BC","REV_AT_EPOCH":"6149","REF_FRAME":"TEME","DECAY_DATE":null,"BSTAR":"0.00003084400000","OBJECT_NAME":"STARLINK-2498","MEAN_ELEMENT_THEORY":"SGP4","APOAPSIS":"548.282","ELEMENT_SET_NO":"999","SEMIMAJOR_AXIS":"6925.336","RCS_SIZE":"LARGE","RA_OF_ASC_NODE":"133.2385","EPOCH":"2022-06-08T08:48:42.760512","MEAN_MOTION_DOT":"0.00000178","MEAN_MOTION_DDOT":"0.0000000000000","TLE_LINE1":"1 48326U 21036BC  22159.36716158  .00000178  00000-0  30844-4 0  9990"},{"FILE":"3485745","ARG_OF_PERICENTER":"53.8631","PERIOD":"95.592","COUNTRY_CODE":"US","CLASSIFICATION_TYPE":"U","REF_FRAME":"TEME","DECAY_DATE":null,"REV_AT_EPOCH":"6149","OBJECT_ID":"2021-036BD","APOAPSIS":"548.629","MEAN_ELEMENT_THEORY":"SGP4","OBJECT_NAME":"STARLINK-2502","BSTAR":"0.00000360150000","TLE_LINE1":"1 48327U 21036BD  22159.36348290 -.00000228  00000-0  36015-5 0  9993","MEAN_MOTION_DDOT":"0.0000000000000","RA_OF_ASC_NODE":"133.2501","RCS_SIZE":"LARGE","SEMIMAJOR_AXIS":"6925.348","EPOCH":"2022-06-08T08:43:24.922560","MEAN_MOTION_DOT":"-0.00000228","ELEMENT_SET_NO":"999","TIME_SYSTEM":"UTC","NORAD_CAT_ID":"48327","PERIAPSIS":"545.797","MEAN_ANOMALY":"306.2547","MEAN_MOTION":"15.06400176","ECCENTRICITY":"0.00020450","EPHEMERIS_TYPE":"0","LAUNCH_DATE":"2021-04-29","INCLINATION":"53.0553","OBJECT_TYPE":"PAYLOAD","CENTER_NAME":"EARTH","TLE_LINE2":"2 48327  53.0553 133.2501 0002045  53.8631 306.2547 15.06400176 61496","GP_ID":"205634815","SITE":"AFETR"},{"OBJECT_ID":"2021-036BE","REV_AT_EPOCH":"6150","REF_FRAME":"TEME","DECAY_DATE":null,"CLASSIFICATION_TYPE":"U","COUNTRY_CODE":"US","ARG_OF_PERICENTER":"56.0351","PERIOD":"95.592","FILE":"3485745","ELEMENT_SET_NO":"999","RCS_SIZE":"LARGE","SEMIMAJOR_AXIS":"6925.347","RA_OF_ASC_NODE":"132.9754","EPOCH":"2022-06-08T10:13:39.186336","MEAN_MOTION_DOT":"-0.00000117","MEAN_MOTION_DDOT":"0.0000000000000","TLE_LINE1":"1 48328U 21036BE  22159.42614799 -.00000117  00000-0  11071-4 0  9992","BSTAR":"0.00001107100000","OBJECT_NAME":"STARLINK-2504","MEAN_ELEMENT_THEORY":"SGP4","APOAPSIS":"548.507","ECCENTRICITY":"0.00018700","MEAN_MOTION":"15.06400367","PERIAPSIS":"545.917","MEAN_ANOMALY":"304.0816","NORAD_CAT_ID":"48328","TIME_SYSTEM":"UTC","SITE":"AFETR","GP_ID":"205633566","TLE_LINE2":"2 48328  53.0556 132.9754 0001870  56.0351 304.0816 15.06400367 61504","CENTER_NAME":"EARTH","OBJECT_TYPE":"PAYLOAD","INCLINATION":"53.0556","EPHEMERIS_TYPE":"0","LAUNCH_DATE":"2021-04-29"},{"NORAD_CAT_ID":"48329","TIME_SYSTEM":"UTC","MEAN_MOTION":"15.06393315","ECCENTRICITY":"0.00021970","MEAN_ANOMALY":"321.4872","PERIAPSIS":"545.713","INCLINATION":"53.0542","OBJECT_TYPE":"PAYLOAD","EPHEMERIS_TYPE":"0","LAUNCH_DATE":"2021-04-29","GP_ID":"205634316","SITE":"AFETR","CENTER_NAME":"EARTH","TLE_LINE2":"2 48329  53.0542 132.3974 0002197  38.6274 321.4872 15.06393315 61522","CLASSIFICATION_TYPE":"U","PERIOD":"95.593","ARG_OF_PERICENTER":"38.6274","FILE":"3485745","COUNTRY_CODE":"US","OBJECT_ID":"2021-036BF","REF_FRAME":"TEME","DECAY_DATE":null,"REV_AT_EPOCH":"6152","OBJECT_NAME":"STARLINK-2510","BSTAR":"0.00000691090000","MEAN_ELEMENT_THEORY":"SGP4","APOAPSIS":"548.756","MEAN_MOTION_DDOT":"0.0000000000000","ELEMENT_SET_NO":"999","RA_OF_ASC_NODE":"132.3974","RCS_SIZE":"LARGE","SEMIMAJOR_AXIS":"6925.369","EPOCH":"2022-06-08T13:19:24.821760","MEAN_MOTION_DOT":"-0.00000179","TLE_LINE1":"1 48329U 21036BF  22159.55514840 -.00000179  00000-0  69109-5 0  9997"}];
